FAUNA                   
1 43052U 17071R   19039.05896510  .00003196  00000-0  86917-4 0  9990
2 43052  51.6403 330.3373 0002984  66.8495 293.2804 15.40649434 65917
CORVUS BC3              
1 43118U 18004H   19039.16449620  .00000654  00000-0  31166-4 0  9990
2 43118  97.5036 106.8570 0010308 358.4484   1.6719 15.22622477 59617
MICROMAS-2A             
1 43131U 18004W   19039.72763112  .00001669  00000-0  72663-4 0  9996
2 43131  97.5053 107.8437 0009284 359.7725   0.3506 15.23621644 59725
CICERO 7                
1 43143U 18004AJ  19039.76635043  .00001283  00000-0  56177-4 0  9998
2 43143  97.5044 108.0809 0007756  11.6708 348.4707 15.23851240 59749
GOMX4-B                 
1 43196U 18015E   19039.42584571  .00000026  00000-0  40273-5 0  9995
2 43196  97.3725 168.9869 0020453  48.1882 312.1069 15.23806109 56503
GOMX4-A                 
1 43197U 18015F   19039.69758468  .00000298  00000-0  15228-4 0  9995
2 43197  97.3732 169.2674 0020824  48.8588  57.6616 15.23899241 56555
1KUNS-PF                
1 43466U 98067NP  19039.86966988  .00014004  00000-0  16620-3 0  9992
2 43466  51.6376 271.0518 0000471 132.9624 227.1409 15.61485116 42601
UBAKUSAT                
1 43467U 98067NQ  19039.86266576  .00009547  00000-0  12295-3 0  9999
2 43467  51.6373 272.5009 0001677 293.0016  67.0800 15.59780976 42596
BATSU-CS1 (IRAZU)       
1 43468U 98067NR  19039.83388235  .00017932  00000-0  20062-3 0  9992
2 43468  51.6371 270.0587 0000684 147.3391 212.7646 15.62798978142608
CUBERRT                 
1 43546U 98067NU  19038.88225707  .00016995  00000-0  21172-3 0  9998
2 43546  51.6377 279.4448 0005090   6.7879 353.3182 15.60026488 32541
TEMPEST-D               
1 43547U 98067NV  19039.51447789  .00003403  00000-0  54010-4 0  9994
2 43547  51.6381 278.4128 0005787   4.7531 355.3515 15.56466740 32295
RAINCUBE                
1 43548U 98067NW  19039.86657028  .00010458  00000-0  14156-3 0  9996
2 43548  51.6370 275.5157 0005358  16.3432 343.7732 15.58317804 32815
HALOSAT                 
1 43549U 98067NX  19039.86669956  .00009388  00000-0  12779-3 0  9999
2 43549  51.6371 275.5190 0005316  18.7299 341.3888 15.58313876 32377
ENDUROSAT ONE           
1 43551U 98067NZ  19039.85907925  .00012087  00000-0  15744-3 0  9997
2 43551  51.6377 274.7178 0005724  26.7722 333.3566 15.59172062 32797
EQUISAT                 
1 43552U 98067PA  19039.82941238  .00009553  00000-0  12859-3 0  9998
2 43552  51.6389 275.2744 0006099  25.0614 335.0673 15.58586200 32749
AEROCUBE 12A            
1 43556U 18046C   19039.80469166  .00000702  00000-0  37847-4 0  9996
2 43556  51.6434 319.5048 0008119 330.4992  29.5529 15.28279714 31694
AEROCUBE 12B            
1 43557U 18046D   19039.15555847  .00000382  00000-0  26493-4 0  9996
2 43557  51.6438 322.6695 0008187 328.1042  31.9442 15.28204697 31540
UITMSAT-1               
1 43589U 98067PD  19038.92896848  .00009785  00000-0  13280-3 0  9990
2 43589  51.6366 280.4975 0005507  32.2198 327.9129 15.58333648 28330
MAYA-1                  
1 43590U 98067PE  19038.92589104  .00009742  00000-0  13214-3 0  9996
2 43590  51.6368 280.4780 0005544  33.1585 326.9754 15.58357183 28264
BHUTAN-1                
1 43591U 98067PF  19038.92101134  .00009420  00000-0  12775-3 0  9994
2 43591  51.6378 280.4486 0005733  33.5940 326.5415 15.58407014 28267
SIRIUSSAT-1             
1 43595U 98067PG  19039.49106530  .00008609  00000-0  11985-3 0  9996
2 43595  51.6372 278.2496 0002817 347.9346  12.1578 15.57836960 27524
SIRIUSSAT-2             
1 43596U 98067PH  19038.93060768  .00009235  00000-0  12886-3 0  9994
2 43596  51.6384 281.2749 0003476 346.9394  13.1508 15.57669484 27436
TANUSHA-3               
1 43597U 98067PJ  19039.85405765  .00012064  00000-0  16180-3 0  9992
2 43597  51.6365 276.1551 0003019   8.9372 351.1673 15.58400614 27587
SURFSAT                 
1 43614U 18070B   19038.75097777  .00002365  00000-0  65427-4 0  9998
2 43614  93.0393 309.5671 0019371  90.6612 269.6861 15.36908331 22295
CP7 (DAVE)              
1 43615U 18070C   19039.46800533  .00002196  00000-0  60820-4 0  9994
2 43615  93.0393 309.8650 0019404  88.1805 272.1670 15.36874966 22405
ELFIN-B                 
1 43616U 18070D   19038.80005478  .00003238  00000-0  88595-4 0  9994
2 43616  93.0353 309.5323 0020376  93.1266 267.2319 15.37202235 22302
ELFIN-A                 
1 43617U 18070E   19039.83841012  .00003441  00000-0  94080-4 0  9993
2 43617  93.0409 310.0762 0019411  86.7404 273.6070 15.37243592 22462
DEBRISSAT-1             
1 43621U 98067PM  19039.54861750  .00285053  00000-0  12613-2 0  9992
2 43621  51.6386 268.1687 0003638 214.3473 145.7145 15.83084232 22657
CUBEBEL-1 (BSUSAT-1)    
1 43666U 18083E   19039.78439208  .00001069  00000-0  56985-4 0  9991
2 43666  97.5310  65.0846 0013676 280.8270 196.8939 15.17292733 15585
DEBRISSAT-2             
1 43680U 98067PR  19039.85817754  .00014058  00000-0  18850-3 0  9991
2 43680  51.6413 276.1957 0003037  44.0130 316.1081 15.58244165 36320
CICERO 10               
1 43690U 18088A   19038.84051473  .00000821  00000-0  36892-4 0  9993
2 43690  85.0361  44.6264 0014195 335.8668  24.1906 15.19390694 13487
IRVINE01                
1 43693U 18088D   19039.81808105  .00002690  00000-0  11994-3 0  9997
2 43693  85.0341  43.8360 0016956 315.8053  44.1833 15.20788582 13625
PROXIMA I               
1 43694U 18088E   19039.52797746  .00000938  00000-0  40201-4 0  9991
2 43694  85.0304  43.9422 0017665 307.0451  52.9174 15.21136709 13587
PROXIMA II              
1 43696U 18088G   19039.46182439  .00000952  00000-0  40829-4 0  9995
2 43696  85.0305  43.9863 0017710 307.2524  52.7102 15.21142735 13577
FACSAT-1                
1 43721U 18096C   19039.84252979  .00001315  00000-0  53957-4 0  9992
2 43721  97.4753 109.8532 0019795  69.7231 290.6132 15.25887393 10938
CENTAURI-2              
1 43722U 18096D   19039.83798759  .00001729  00000-0  69791-4 0  9995
2 43722  97.4753 109.8600 0019883  70.5549 289.7836 15.26012862 10926
CORVUS-BC 4             
1 43767U 18099K   19039.83883234 -.00000129  00000-0 -66424-5 0  9996
2 43767  97.7586 113.2566 0012759  42.2179 318.0022 14.94513625 10023
STF-1                   
1 43852U 18104D   19039.01228767  .00000041  00000-0  00000+0 0  9995
2 43852  85.0356 142.8836 0017556 103.9927 256.3332 15.20320911  8150
LUME 1                  
1 43908U 18111AJ  19039.87694044  .00001016  00000-0  44479-4 0  9990
2 43908  97.2990 308.6177 0023582  89.3740 271.0199 15.24038257  6670
AOBA VELOX-IV           
1 43940U 19003J   19039.89529619  .00001478  00000-0  64718-4 0  9994
2 43940  97.2962 101.5666 0025212 165.5665 249.9276 15.23311805  3324
CATSAT-2                
1 44029U 98067PV  19038.90775319  .00007707  00000-0  12453-3 0  9990
2 44029  51.6389 284.1099 0005062  28.9539 331.1731 15.53901458  1220
DELPHINI                
1 44030U 98067PW  19038.97208234  .00007461  00000-0  12081-3 0  9990
2 44030  51.6388 283.7897 0004678  30.4790 329.6471 15.53898921  1202
UNITE                   
1 44031U 98067PX  19038.97195948  .00005309  00000-0  88055-4 0  9992
2 44031  51.6392 283.7882 0003338  29.8898 330.2283 15.53909586  1204
TECHEDSAT 8             
1 44032U 98067PY  19038.97138193  .00013898  00000-0  21688-3 0  9992
2 44032  51.6386 283.7846 0003250  34.8040 325.3163 15.54117921  1180
CATSAT-1                
1 44033U 98067PZ  19039.22919314  .00009140  00000-0  14613-3 0  9999
2 44033  51.6387 282.5066 0005100  31.2849 328.8444 15.53934530  1189
